CCSDS_OMM_VERS = 2.0
CREATION_DATE  = 
ORIGINATOR     = 

OBJECT_NAME    = SL-16 R/B
OBJECT_ID      = 1998-045B
CENTER_NAME    = EARTH
REF_FRAME      = TEME
TIME_SYSTEM    = UTC
MEAN_ELEMENT_THEORY = SGP/SGP4

EPOCH          = 2026-03-27T14:01:46.521408
MEAN_MOTION    = 14.16194394
ECCENTRICITY   = .0007921
INCLINATION    = 71.0104
RA_OF_ASC_NODE = 143.9442
ARG_OF_PERICENTER = 340.2276
MEAN_ANOMALY   = 19.8539

EPHEMERIS_TYPE = 0
CLASSIFICATION_TYPE = U
NORAD_CAT_ID   = 25407
ELEMENT_SET_NO = 999
REV_AT_EPOCH   = 42963
BSTAR          = -.10451E-3
MEAN_MOTION_DOT = -.255E-5
MEAN_MOTION_DDOT = 0

CCSDS_OMM_VERS = 2.0
CREATION_DATE  = 
ORIGINATOR     = 

OBJECT_NAME    = ISS (ZARYA)
OBJECT_ID      = 1998-067A
CENTER_NAME    = EARTH
REF_FRAME      = TEME
TIME_SYSTEM    = UTC
MEAN_ELEMENT_THEORY = SGP/SGP4

EPOCH          = 2026-03-27T20:12:32.651712
MEAN_MOTION    = 15.48591753
ECCENTRICITY   = .0006212
INCLINATION    = 51.6344
RA_OF_ASC_NODE = 342.6225
ARG_OF_PERICENTER = 240.1567
MEAN_ANOMALY   = 119.8804

EPHEMERIS_TYPE = 0
CLASSIFICATION_TYPE = U
NORAD_CAT_ID   = 25544
ELEMENT_SET_NO = 999
REV_AT_EPOCH   = 55914
BSTAR          = .22728466E-3
MEAN_MOTION_DOT = .1192E-3
MEAN_MOTION_DDOT = 0

CCSDS_OMM_VERS = 2.0
CREATION_DATE  = 
ORIGINATOR     = 

OBJECT_NAME    = CZ-4B R/B
OBJECT_ID      = 1999-025C
CENTER_NAME    = EARTH
REF_FRAME      = TEME
TIME_SYSTEM    = UTC
MEAN_ELEMENT_THEORY = SGP/SGP4

EPOCH          = 2026-03-27T21:20:06.353952
MEAN_MOTION    = 14.18268789
ECCENTRICITY   = .00360343
INCLINATION    = 98.6589
RA_OF_ASC_NODE = 130.7365
ARG_OF_PERICENTER = 293.1656
MEAN_ANOMALY   = 240.4836

EPHEMERIS_TYPE = 0
CLASSIFICATION_TYPE = U
NORAD_CAT_ID   = 25732
ELEMENT_SET_NO = 999
REV_AT_EPOCH   = 39074
BSTAR          = .449947E-4
MEAN_MOTION_DOT = .5E-6
MEAN_MOTION_DDOT = 0

CCSDS_OMM_VERS = 2.0
CREATION_DATE  = 
ORIGINATOR     = 

OBJECT_NAME    = OKEAN-O
OBJECT_ID      = 1999-039A
CENTER_NAME    = EARTH
REF_FRAME      = TEME
TIME_SYSTEM    = UTC
MEAN_ELEMENT_THEORY = SGP/SGP4

EPOCH          = 2026-03-27T21:38:53.517120
MEAN_MOTION    = 14.80363585
ECCENTRICITY   = .00008721
INCLINATION    = 97.9404
RA_OF_ASC_NODE = 146.6050
ARG_OF_PERICENTER = 90.7564
MEAN_ANOMALY   = 269.3748

EPHEMERIS_TYPE = 0
CLASSIFICATION_TYPE = U
NORAD_CAT_ID   = 25860
ELEMENT_SET_NO = 999
REV_AT_EPOCH   = 43708
BSTAR          = .91630935E-4
MEAN_MOTION_DOT = .647E-5
MEAN_MOTION_DDOT = 0

CCSDS_OMM_VERS = 2.0
CREATION_DATE  = 
ORIGINATOR     = 

OBJECT_NAME    = SL-16 R/B
OBJECT_ID      = 1999-039B
CENTER_NAME    = EARTH
REF_FRAME      = TEME
TIME_SYSTEM    = UTC
MEAN_ELEMENT_THEORY = SGP/SGP4

EPOCH          = 2026-03-27T17:30:46.221696
MEAN_MOTION    = 14.81755114
ECCENTRICITY   = .00144656
INCLINATION    = 97.9927
RA_OF_ASC_NODE = 145.7960
ARG_OF_PERICENTER = 193.7725
MEAN_ANOMALY   = 166.3095

EPHEMERIS_TYPE = 0
CLASSIFICATION_TYPE = U
NORAD_CAT_ID   = 25861
ELEMENT_SET_NO = 999
REV_AT_EPOCH   = 43953
BSTAR          = .7253203E-4
MEAN_MOTION_DOT = .519E-5
MEAN_MOTION_DDOT = 0

CCSDS_OMM_VERS = 2.0
CREATION_DATE  = 
ORIGINATOR     = 

OBJECT_NAME    = DELTA 2 R/B
OBJECT_ID      = 1999-041E
CENTER_NAME    = EARTH
REF_FRAME      = TEME
TIME_SYSTEM    = UTC
MEAN_ELEMENT_THEORY = SGP/SGP4

EPOCH          = 2026-03-27T20:20:22.507008
MEAN_MOTION    = 14.11877516
ECCENTRICITY   = .05026504
INCLINATION    = 51.7606
RA_OF_ASC_NODE = 228.7451
ARG_OF_PERICENTER = 41.9822
MEAN_ANOMALY   = 321.8520

EPHEMERIS_TYPE = 0
CLASSIFICATION_TYPE = U
NORAD_CAT_ID   = 25876
ELEMENT_SET_NO = 999
REV_AT_EPOCH   = 36559
BSTAR          = .1727538E-3
MEAN_MOTION_DOT = .828E-5
MEAN_MOTION_DDOT = 0

CCSDS_OMM_VERS = 2.0
CREATION_DATE  = 
ORIGINATOR     = 

OBJECT_NAME    = HELIOS 1B
OBJECT_ID      = 1999-064A
CENTER_NAME    = EARTH
REF_FRAME      = TEME
TIME_SYSTEM    = UTC
MEAN_ELEMENT_THEORY = SGP/SGP4

EPOCH          = 2026-03-27T17:43:52.364064
MEAN_MOTION    = 14.87765219
ECCENTRICITY   = .00018809
INCLINATION    = 98.1674
RA_OF_ASC_NODE = 349.5110
ARG_OF_PERICENTER = 49.7918
MEAN_ANOMALY   = 310.3462

EPHEMERIS_TYPE = 0
CLASSIFICATION_TYPE = U
NORAD_CAT_ID   = 25977
ELEMENT_SET_NO = 999
REV_AT_EPOCH   = 68794
BSTAR          = .1786472E-3
MEAN_MOTION_DOT = .1572E-4
MEAN_MOTION_DDOT = 0

CCSDS_OMM_VERS = 2.0
CREATION_DATE  = 
ORIGINATOR     = 

OBJECT_NAME    = TERRA
OBJECT_ID      = 1999-068A
CENTER_NAME    = EARTH
REF_FRAME      = TEME
TIME_SYSTEM    = UTC
MEAN_ELEMENT_THEORY = SGP/SGP4

EPOCH          = 2026-03-27T22:18:18.640224
MEAN_MOTION    = 14.61033370
ECCENTRICITY   = .00035491
INCLINATION    = 97.9555
RA_OF_ASC_NODE = 139.6639
ARG_OF_PERICENTER = 113.4686
MEAN_ANOMALY   = 291.1000

EPHEMERIS_TYPE = 0
CLASSIFICATION_TYPE = U
NORAD_CAT_ID   = 25994
ELEMENT_SET_NO = 999
REV_AT_EPOCH   = 39774
BSTAR          = .92428714E-4
MEAN_MOTION_DOT = .409E-5
MEAN_MOTION_DDOT = 0

CCSDS_OMM_VERS = 2.0
CREATION_DATE  = 
ORIGINATOR     = 

OBJECT_NAME    = SL-16 R/B
OBJECT_ID      = 2000-006B
CENTER_NAME    = EARTH
REF_FRAME      = TEME
TIME_SYSTEM    = UTC
MEAN_ELEMENT_THEORY = SGP/SGP4

EPOCH          = 2026-03-27T16:12:27.648000
MEAN_MOTION    = 14.15826378
ECCENTRICITY   = .00158019
INCLINATION    = 71.0018
RA_OF_ASC_NODE = 60.0158
ARG_OF_PERICENTER = 161.6699
MEAN_ANOMALY   = 198.4996

EPHEMERIS_TYPE = 0
CLASSIFICATION_TYPE = U
NORAD_CAT_ID   = 26070
ELEMENT_SET_NO = 999
REV_AT_EPOCH   = 35110
BSTAR          = .18358324E-3
MEAN_MOTION_DOT = .314E-5
MEAN_MOTION_DDOT = 0

CCSDS_OMM_VERS = 2.0
CREATION_DATE  = 
ORIGINATOR     = 

OBJECT_NAME    = TITAN 4B R/B
OBJECT_ID      = 2000-047B
CENTER_NAME    = EARTH
REF_FRAME      = TEME
TIME_SYSTEM    = UTC
MEAN_ELEMENT_THEORY = SGP/SGP4

EPOCH          = 2026-03-27T20:24:15.976224
MEAN_MOTION    = 15.09727624
ECCENTRICITY   = .00398091
INCLINATION    = 67.9913
RA_OF_ASC_NODE = 349.4392
ARG_OF_PERICENTER = 14.1332
MEAN_ANOMALY   = 346.0921

EPHEMERIS_TYPE = 0
CLASSIFICATION_TYPE = U
NORAD_CAT_ID   = 26474
ELEMENT_SET_NO = 999
REV_AT_EPOCH   = 39565
BSTAR          = .23349975E-3
MEAN_MOTION_DOT = .3708E-4
MEAN_MOTION_DDOT = 0

CCSDS_OMM_VERS = 2.0
CREATION_DATE  = 
ORIGINATOR     = 

OBJECT_NAME    = ENVISAT
OBJECT_ID      = 2002-009A
CENTER_NAME    = EARTH
REF_FRAME      = TEME
TIME_SYSTEM    = UTC
MEAN_ELEMENT_THEORY = SGP/SGP4

EPOCH          = 2026-03-27T21:21:31.305888
MEAN_MOTION    = 14.39043112
ECCENTRICITY   = .00012144
INCLINATION    = 98.3756
RA_OF_ASC_NODE = 40.0572
ARG_OF_PERICENTER = 81.5484
MEAN_ANOMALY   = 294.3688

EPHEMERIS_TYPE = 0
CLASSIFICATION_TYPE = U
NORAD_CAT_ID   = 27386
ELEMENT_SET_NO = 999
REV_AT_EPOCH   = 26179
BSTAR          = .53428428E-4
MEAN_MOTION_DOT = .122E-5
MEAN_MOTION_DDOT = 0

CCSDS_OMM_VERS = 2.0
CREATION_DATE  = 
ORIGINATOR     = 

OBJECT_NAME    = IDEFIX & ARIANE 42P R/B
OBJECT_ID      = 2002-021B
CENTER_NAME    = EARTH
REF_FRAME      = TEME
TIME_SYSTEM    = UTC
MEAN_ELEMENT_THEORY = SGP/SGP4

EPOCH          = 2026-03-27T19:33:20.045376
MEAN_MOTION    = 14.31038046
ECCENTRICITY   = .00125531
INCLINATION    = 98.5890
RA_OF_ASC_NODE = 25.2067
ARG_OF_PERICENTER = 130.2966
MEAN_ANOMALY   = 229.9317

EPHEMERIS_TYPE = 0
CLASSIFICATION_TYPE = U
NORAD_CAT_ID   = 27422
ELEMENT_SET_NO = 999
REV_AT_EPOCH   = 24661
BSTAR          = .12050718E-3
MEAN_MOTION_DOT = .274E-5
MEAN_MOTION_DDOT = 0

